{
    "links": {
        "self": "http://www.neowsapp.com/rest/v1/neo/3892649?api_key=iIulBulltgU6a56xZRHN4H3l9WmuAYTsLGpBGhQ2"
    },
    "id": "3892649",
    "neo_reference_id": "3892649",
    "name": "(2019 VX1)",
    "designation": "2019 VX1",
    "nasa_jpl_url": "http://ssd.jpl.nasa.gov/sbdb.cgi?sstr=3892649",
    "absolute_magnitude_h": 22.0,
    "estimated_diameter": {
        "kilometers": {
            "estimated_diameter_min": 0.1058168859,
            "estimated_diameter_max": 0.2366137501
        },
        "meters": {
            "estimated_diameter_min": 105.8168859331,
            "estimated_diameter_max": 236.6137501138
        },
        "miles": {
            "estimated_diameter_min": 0.0657515442,
            "estimated_diameter_max": 0.1470249225
        },
        "feet": {
            "estimated_diameter_min": 347.1682720448,
            "estimated_diameter_max": 776.2918559233
        }
    },
    "is_potentially_hazardous_asteroid": false,
    "close_approach_data": [
        {
            "close_approach_date": "2019-12-30",
            "close_approach_date_full": "2019-Dec-30 13:53",
            "epoch_date_close_approach": 1577713980000,
            "relative_velocity": {
                "kilometers_per_second": "15.2189460159",
                "kilometers_per_hour": "54788.2056573685",
                "miles_per_hour": "34043.2603430466"
            },
            "miss_distance": {
                "astronomical": "0.2715029079",
                "lunar": "105.6146311731",
                "kilometers": "40616256.720646173",
                "miles": "25237771.6351882674"
            },
            "orbiting_body": "Earth"
        }
    ],
    "orbital_data": {
        "orbit_id": "3",
        "orbit_determination_date": "2020-01-11 04:52:25",
        "first_observation_date": "2019-10-25",
        "last_observation_date": "2019-11-16",
        "data_arc_in_days": 22,
        "observations_used": 19,
        "orbit_uncertainty": "7",
        "minimum_orbit_intersection": ".128629",
        "jupiter_tisserand_invariant": "3.451",
        "epoch_osculation": "2459000.5",
        "eccentricity": ".6606354136891865",
        "semi_major_axis": "2.066539680505368",
        "inclination": "9.421913336548434",
        "ascending_node_longitude": "327.2699252212261",
        "orbital_period": "1085.085724824308",
        "perihelion_distance": ".7013103837695848",
        "perihelion_argument": "158.2210223356131",
        "aphelion_distance": "3.431768977241151",
        "perihelion_time": "2458863.679003483092",
        "mean_anomaly": "45.39324186027991",
        "mean_motion": ".3317710221082207",
        "equinox": "J2000",
        "orbit_class": {
            "orbit_class_type": "APO",
            "orbit_class_description": "Near-Earth asteroid orbits which cross the Earth’s orbit similar to that of 1862 Apollo",
            "orbit_class_range": "a (semi-major axis) > 1.0 AU; q (perihelion) < 1.017 AU"
        }
    },
    "is_sentry_object": false
}